[{"OBJECT_NAME":"POLYTECH-UNIVERSE 3 (RS46S)","OBJECT_ID":"2023-091AB","EPOCH":"2026-03-09T23:26:37.673088","MEAN_MOTION":15.18102693,"ECCENTRICITY":0.00173309,"INCLINATION":97.5173,"RA_OF_ASC_NODE":127.4169,"ARG_OF_PERICENTER":113.2405,"MEAN_ANOMALY":247.0656,"EPHEMERIS_TYPE":0,"CLASSIFICATION_TYPE":"U","NORAD_CAT_ID":57191,"ELEMENT_SET_NO":999,"REV_AT_EPOCH":14889,"BSTAR":0.00036949937,"MEAN_MOTION_DOT":7.497e-5,"MEAN_MOTION_DDOT":0},{"OBJECT_NAME":"SIGI","OBJECT_ID":"2025-009Z","EPOCH":"2026-03-09T22:08:54.692736","MEAN_MOTION":15.23445824,"ECCENTRICITY":0.00019568,"INCLINATION":97.4047,"RA_OF_ASC_NODE":150.3738,"ARG_OF_PERICENTER":318.6476,"MEAN_ANOMALY":41.4612,"EPHEMERIS_TYPE":0,"CLASSIFICATION_TYPE":"U","NORAD_CAT_ID":62632,"ELEMENT_SET_NO":999,"REV_AT_EPOCH":6368,"BSTAR":0.00028660124,"MEAN_MOTION_DOT":6.759e-5,"MEAN_MOTION_DDOT":0}]
